CCSDS_OMM_VERS = 2.0
CREATION_DATE  = 
ORIGINATOR     = 

OBJECT_NAME    = STARLINK-35607
OBJECT_ID      = 2025-240T
CENTER_NAME    = EARTH
REF_FRAME      = TEME
TIME_SYSTEM    = UTC
MEAN_ELEMENT_THEORY = SGP/SGP4

EPOCH          = 2025-11-11T06:00:02.000160
MEAN_MOTION    = 15.69168505
ECCENTRICITY   = .00012357
INCLINATION    = 53.1590
RA_OF_ASC_NODE = 255.3568
ARG_OF_PERICENTER = 107.5516
MEAN_ANOMALY   = 153.5359

EPHEMERIS_TYPE = 0
CLASSIFICATION_TYPE = U
NORAD_CAT_ID   = 66163
ELEMENT_SET_NO = 999
REV_AT_EPOCH   = 384
BSTAR          = -.82255107E-2
MEAN_MOTION_DOT = -.877564E-2
MEAN_MOTION_DDOT = 0

CCSDS_OMM_VERS = 2.0
CREATION_DATE  = 
ORIGINATOR     = 

OBJECT_NAME    = STARLINK-35614
OBJECT_ID      = 2025-240U
CENTER_NAME    = EARTH
REF_FRAME      = TEME
TIME_SYSTEM    = UTC
MEAN_ELEMENT_THEORY = SGP/SGP4

EPOCH          = 2025-11-11T06:00:02.000160
MEAN_MOTION    = 15.69079324
ECCENTRICITY   = .00009198
INCLINATION    = 53.1592
RA_OF_ASC_NODE = 255.3486
ARG_OF_PERICENTER = 94.3501
MEAN_ANOMALY   = 170.5786

EPHEMERIS_TYPE = 0
CLASSIFICATION_TYPE = U
NORAD_CAT_ID   = 66164
ELEMENT_SET_NO = 999
REV_AT_EPOCH   = 384
BSTAR          = -.67705745E-2
MEAN_MOTION_DOT = -.732572E-2
MEAN_MOTION_DDOT = 0

CCSDS_OMM_VERS = 2.0
CREATION_DATE  = 
ORIGINATOR     = 

OBJECT_NAME    = STARLINK-35575
OBJECT_ID      = 2025-240V
CENTER_NAME    = EARTH
REF_FRAME      = TEME
TIME_SYSTEM    = UTC
MEAN_ELEMENT_THEORY = SGP/SGP4

EPOCH          = 2025-11-11T06:00:02.000160
MEAN_MOTION    = 15.69094405
ECCENTRICITY   = .00010997
INCLINATION    = 53.1591
RA_OF_ASC_NODE = 255.3530
ARG_OF_PERICENTER = 110.4964
MEAN_ANOMALY   = 152.5352

EPHEMERIS_TYPE = 0
CLASSIFICATION_TYPE = U
NORAD_CAT_ID   = 66165
ELEMENT_SET_NO = 999
REV_AT_EPOCH   = 384
BSTAR          = -.72032036E-2
MEAN_MOTION_DOT = -.775796E-2
MEAN_MOTION_DDOT = 0

CCSDS_OMM_VERS = 2.0
CREATION_DATE  = 
ORIGINATOR     = 

OBJECT_NAME    = STARLINK-35624
OBJECT_ID      = 2025-240W
CENTER_NAME    = EARTH
REF_FRAME      = TEME
TIME_SYSTEM    = UTC
MEAN_ELEMENT_THEORY = SGP/SGP4

EPOCH          = 2025-11-11T06:00:02.000160
MEAN_MOTION    = 15.69125245
ECCENTRICITY   = .00011952
INCLINATION    = 53.1591
RA_OF_ASC_NODE = 255.3407
ARG_OF_PERICENTER = 89.5990
MEAN_ANOMALY   = 179.1779

EPHEMERIS_TYPE = 0
CLASSIFICATION_TYPE = U
NORAD_CAT_ID   = 66166
ELEMENT_SET_NO = 999
REV_AT_EPOCH   = 384
BSTAR          = -.76398072E-2
MEAN_MOTION_DOT = -.819482E-2
MEAN_MOTION_DDOT = 0

CCSDS_OMM_VERS = 2.0
CREATION_DATE  = 
ORIGINATOR     = 

OBJECT_NAME    = STARLINK-35641
OBJECT_ID      = 2025-240X
CENTER_NAME    = EARTH
REF_FRAME      = TEME
TIME_SYSTEM    = UTC
MEAN_ELEMENT_THEORY = SGP/SGP4

EPOCH          = 2025-11-11T06:00:02.000160
MEAN_MOTION    = 15.69111979
ECCENTRICITY   = .00010751
INCLINATION    = 53.1591
RA_OF_ASC_NODE = 255.3443
ARG_OF_PERICENTER = 92.6694
MEAN_ANOMALY   = 174.1910

EPHEMERIS_TYPE = 0
CLASSIFICATION_TYPE = U
NORAD_CAT_ID   = 66167
ELEMENT_SET_NO = 999
REV_AT_EPOCH   = 384
BSTAR          = -.74045691E-2
MEAN_MOTION_DOT = -.796073E-2
MEAN_MOTION_DDOT = 0

CCSDS_OMM_VERS = 2.0
CREATION_DATE  = 
ORIGINATOR     = 

OBJECT_NAME    = STARLINK-35578
OBJECT_ID      = 2025-240Y
CENTER_NAME    = EARTH
REF_FRAME      = TEME
TIME_SYSTEM    = UTC
MEAN_ELEMENT_THEORY = SGP/SGP4

EPOCH          = 2025-11-11T06:00:02.000160
MEAN_MOTION    = 15.69097832
ECCENTRICITY   = .00010593
INCLINATION    = 53.1591
RA_OF_ASC_NODE = 255.3285
ARG_OF_PERICENTER = 91.9018
MEAN_ANOMALY   = 182.6330

EPHEMERIS_TYPE = 0
CLASSIFICATION_TYPE = U
NORAD_CAT_ID   = 66168
ELEMENT_SET_NO = 999
REV_AT_EPOCH   = 384
BSTAR          = -.72457072E-2
MEAN_MOTION_DOT = -.780065E-2
MEAN_MOTION_DDOT = 0

CCSDS_OMM_VERS = 2.0
CREATION_DATE  = 
ORIGINATOR     = 

OBJECT_NAME    = STARLINK-35638
OBJECT_ID      = 2025-240Z
CENTER_NAME    = EARTH
REF_FRAME      = TEME
TIME_SYSTEM    = UTC
MEAN_ELEMENT_THEORY = SGP/SGP4

EPOCH          = 2025-11-11T06:00:02.000160
MEAN_MOTION    = 15.69108107
ECCENTRICITY   = .00010632
INCLINATION    = 53.1590
RA_OF_ASC_NODE = 255.3368
ARG_OF_PERICENTER = 105.4235
MEAN_ANOMALY   = 165.2746

EPHEMERIS_TYPE = 0
CLASSIFICATION_TYPE = U
NORAD_CAT_ID   = 66169
ELEMENT_SET_NO = 999
REV_AT_EPOCH   = 384
BSTAR          = -.74280197E-2
MEAN_MOTION_DOT = -.798249E-2
MEAN_MOTION_DDOT = 0

CCSDS_OMM_VERS = 2.0
CREATION_DATE  = 
ORIGINATOR     = 

OBJECT_NAME    = STARLINK-35585
OBJECT_ID      = 2025-240AA
CENTER_NAME    = EARTH
REF_FRAME      = TEME
TIME_SYSTEM    = UTC
MEAN_ELEMENT_THEORY = SGP/SGP4

EPOCH          = 2025-11-11T06:00:02.000160
MEAN_MOTION    = 15.69103538
ECCENTRICITY   = .0001066
INCLINATION    = 53.1589
RA_OF_ASC_NODE = 255.3257
ARG_OF_PERICENTER = 101.0526
MEAN_ANOMALY   = 175.3989

EPHEMERIS_TYPE = 0
CLASSIFICATION_TYPE = U
NORAD_CAT_ID   = 66170
ELEMENT_SET_NO = 999
REV_AT_EPOCH   = 384
BSTAR          = -.73759638E-2
MEAN_MOTION_DOT = -.793015E-2
MEAN_MOTION_DDOT = 0

CCSDS_OMM_VERS = 2.0
CREATION_DATE  = 
ORIGINATOR     = 

OBJECT_NAME    = STARLINK-35606
OBJECT_ID      = 2025-240AB
CENTER_NAME    = EARTH
REF_FRAME      = TEME
TIME_SYSTEM    = UTC
MEAN_ELEMENT_THEORY = SGP/SGP4

EPOCH          = 2025-11-11T06:00:02.000160
MEAN_MOTION    = 15.69111590
ECCENTRICITY   = .00009819
INCLINATION    = 53.1592
RA_OF_ASC_NODE = 255.3204
ARG_OF_PERICENTER = 89.8774
MEAN_ANOMALY   = 188.4817

EPHEMERIS_TYPE = 0
CLASSIFICATION_TYPE = U
NORAD_CAT_ID   = 66171
ELEMENT_SET_NO = 999
REV_AT_EPOCH   = 384
BSTAR          = -.7377567E-2
MEAN_MOTION_DOT = -.793394E-2
MEAN_MOTION_DDOT = 0

CCSDS_OMM_VERS = 2.0
CREATION_DATE  = 
ORIGINATOR     = 

OBJECT_NAME    = STARLINK-35627
OBJECT_ID      = 2025-240AC
CENTER_NAME    = EARTH
REF_FRAME      = TEME
TIME_SYSTEM    = UTC
MEAN_ELEMENT_THEORY = SGP/SGP4

EPOCH          = 2025-11-11T06:00:02.000160
MEAN_MOTION    = 15.69111688
ECCENTRICITY   = .00010112
INCLINATION    = 53.1592
RA_OF_ASC_NODE = 255.3322
ARG_OF_PERICENTER = 95.3283
MEAN_ANOMALY   = 177.2815

EPHEMERIS_TYPE = 0
CLASSIFICATION_TYPE = U
NORAD_CAT_ID   = 66172
ELEMENT_SET_NO = 999
REV_AT_EPOCH   = 384
BSTAR          = -.73984062E-2
MEAN_MOTION_DOT = -.795445E-2
MEAN_MOTION_DDOT = 0

CCSDS_OMM_VERS = 2.0
CREATION_DATE  = 
ORIGINATOR     = 

OBJECT_NAME    = STARLINK-35634
OBJECT_ID      = 2025-240AD
CENTER_NAME    = EARTH
REF_FRAME      = TEME
TIME_SYSTEM    = UTC
MEAN_ELEMENT_THEORY = SGP/SGP4

EPOCH          = 2025-11-11T06:00:02.000160
MEAN_MOTION    = 15.69120670
ECCENTRICITY   = .00011122
INCLINATION    = 53.1591
RA_OF_ASC_NODE = 255.3165
ARG_OF_PERICENTER = 75.7930
MEAN_ANOMALY   = 204.4846

EPHEMERIS_TYPE = 0
CLASSIFICATION_TYPE = U
NORAD_CAT_ID   = 66173
ELEMENT_SET_NO = 999
REV_AT_EPOCH   = 384
BSTAR          = -.75558706E-2
MEAN_MOTION_DOT = -.811137E-2
MEAN_MOTION_DDOT = 0

CCSDS_OMM_VERS = 2.0
CREATION_DATE  = 
ORIGINATOR     = 

OBJECT_NAME    = HTV-X1
OBJECT_ID      = 2025-241A
CENTER_NAME    = EARTH
REF_FRAME      = TEME
TIME_SYSTEM    = UTC
MEAN_ELEMENT_THEORY = SGP/SGP4

EPOCH          = 2025-11-11T06:11:47.166720
MEAN_MOTION    = 15.49525392
ECCENTRICITY   = .00041335
INCLINATION    = 51.6338
RA_OF_ASC_NODE = 298.3179
ARG_OF_PERICENTER = 57.8977
MEAN_ANOMALY   = 302.2413

EPHEMERIS_TYPE = 0
CLASSIFICATION_TYPE = U
NORAD_CAT_ID   = 66174
ELEMENT_SET_NO = 999
REV_AT_EPOCH   = 145
BSTAR          = .2298429E-3
MEAN_MOTION_DOT = .12468E-3
MEAN_MOTION_DDOT = 0

