STARLINK-35607          
1 66163U 25240T   25315.25002315 -.00877564  00000+0 -82255-2 0  9991
2 66163  53.1590 255.3568 0001235 107.5516 153.5359 15.69168505  3849
STARLINK-35614          
1 66164U 25240U   25315.25002315 -.00732572  00000+0 -67706-2 0  9995
2 66164  53.1592 255.3486 0000919  94.3501 170.5786 15.69079324  3849
STARLINK-35575          
1 66165U 25240V   25315.25002315 -.00775796  00000+0 -72032-2 0  9999
2 66165  53.1591 255.3530 0001099 110.4964 152.5352 15.69094405  3848
STARLINK-35624          
1 66166U 25240W   25315.25002315 -.00819482  00000+0 -76398-2 0  9990
2 66166  53.1591 255.3407 0001195  89.5990 179.1779 15.69125245  3849
STARLINK-35641          
1 66167U 25240X   25315.25002315 -.00796073  00000+0 -74046-2 0  9999
2 66167  53.1591 255.3443 0001075  92.6694 174.1910 15.69111979  3844
STARLINK-35578          
1 66168U 25240Y   25315.25002315 -.00780065  00000+0 -72457-2 0  9998
2 66168  53.1591 255.3285 0001059  91.9018 182.6330 15.69097832  3844
STARLINK-35638          
1 66169U 25240Z   25315.25002315 -.00798249  00000+0 -74280-2 0  9998
2 66169  53.1590 255.3368 0001063 105.4235 165.2746 15.69108107  3849
STARLINK-35585          
1 66170U 25240AA  25315.25002315 -.00793015  00000+0 -73760-2 0  9998
2 66170  53.1589 255.3257 0001066 101.0526 175.3989 15.69103538  3848
STARLINK-35606          
1 66171U 25240AB  25315.25002315 -.00793394  00000+0 -73776-2 0  9996
2 66171  53.1592 255.3204 0000981  89.8774 188.4817 15.69111590  3840
STARLINK-35627          
1 66172U 25240AC  25315.25002315 -.00795445  00000+0 -73984-2 0  9997
2 66172  53.1592 255.3322 0001011  95.3283 177.2815 15.69111688  3846
STARLINK-35634          
1 66173U 25240AD  25315.25002315 -.00811137  00000+0 -75559-2 0  9995
2 66173  53.1591 255.3165 0001112  75.7930 204.4846 15.69120670  3842
HTV-X1                  
1 66174U 25241A   25315.25818480  .00012468  00000+0  22984-3 0  9998
2 66174  51.6338 298.3179 0004133  57.8977 302.2413 15.49525392  1455
